[{"OBJECT_NAME":"STARLINK-1627","OBJECT_ID":"2020-057BD","EPOCH":"2026-03-10T00:00:02.999808","MEAN_MOTION":15.7182535,"ECCENTRICITY":0.00032384,"INCLINATION":53.043,"RA_OF_ASC_NODE":223.2369,"ARG_OF_PERICENTER":42.9244,"MEAN_ANOMALY":228.4026,"EPHEMERIS_TYPE":0,"CLASSIFICATION_TYPE":"U","NORAD_CAT_ID":46168,"ELEMENT_SET_NO":999,"REV_AT_EPOCH":596,"BSTAR":0.00036555083,"MEAN_MOTION_DOT":0.00048075,"MEAN_MOTION_DDOT":0},{"OBJECT_NAME":"STARLINK-11536 [DTC]","OBJECT_ID":"2025-006K","EPOCH":"2026-03-09T13:27:25.253280","MEAN_MOTION":15.70864127,"ECCENTRICITY":0.0001241,"INCLINATION":43.0007,"RA_OF_ASC_NODE":140.534,"ARG_OF_PERICENTER":305.8353,"MEAN_ANOMALY":54.2399,"EPHEMERIS_TYPE":0,"CLASSIFICATION_TYPE":"U","NORAD_CAT_ID":62563,"ELEMENT_SET_NO":999,"REV_AT_EPOCH":6658,"BSTAR":0.0019574,"MEAN_MOTION_DOT":0.00258964,"MEAN_MOTION_DDOT":0}]
